ONEWEB-0267             
1 48985U 21060U   25291.24242757  .00000068  00000+0  14494-3 0  9993
2 48985  87.8971 276.9739 0001790  96.0120 264.1215 13.16594391207758
ONEWEB-0268             
1 48986U 21060V   25291.21078816  .00001146  00000+0  29649-2 0  9999
2 48986  87.8979 276.9870 0001816  86.5025 273.6314 13.16591595208018
ONEWEB-0269             
1 48987U 21060W   25291.19177322  .00000109  00000+0  25220-3 0  9999
2 48987  87.8967 277.0183 0001790  81.6743 278.4590 13.16597319207781
ONEWEB-0270             
1 48988U 21060X   25291.20917912 -.00000004  00000+0 -45311-4 0  9999
2 48988  87.8978 276.9891 0002037  99.4223 260.7138 13.16597472207820
ONEWEB-0271             
1 48989U 21060Y   25291.19652919  .00000126  00000+0  29628-3 0  9996
2 48989  87.8986 276.9762 0001797  96.3690 263.7646 13.16594814207827
ONEWEB-0272             
1 48990U 21060Z   25291.21869501 -.00000067  00000+0 -20930-3 0  9991
2 48990  87.8969 276.9963 0001657  93.6385 266.4935 13.16594224207779
ONEWEB-0273             
1 48991U 21060AA  25291.24084601 -.00000005  00000+0 -45483-4 0  9998
2 48991  87.8976 276.9822 0001929  92.8553 267.2799 13.16592718207753
ONEWEB-0274             
1 48992U 21060AB  25291.26619880  .00000056  00000+0  11361-3 0  9995
2 48992  87.8966 277.0060 0001472  87.7013 272.4287 13.16594986207799
